CCSDS_OMM_VERS,COMMENT,CREATION_DATE,ORIGINATOR,OBJECT_NAME,OBJECT_ID,CENTER_NAME,REF_FRAME,TIME_SYSTEM,MEAN_ELEMENT_THEORY,EPOCH,MEAN_MOTION,ECCENTRICITY,INCLINATION,RA_OF_ASC_NODE,ARG_OF_PERICENTER,MEAN_ANOMALY,EPHEMERIS_TYPE,CLASSIFICATION_TYPE,NORAD_CAT_ID,ELEMENT_SET_NO,REV_AT_EPOCH,BSTAR,MEAN_MOTION_DOT,MEAN_MOTION_DDOT,SEMIMAJOR_AXIS,PERIOD,APOAPSIS,PERIAPSIS,OBJECT_TYPE,RCS_SIZE,COUNTRY_CODE,LAUNCH_DATE,SITE,DECAY_DATE,FILE,GP_ID,TLE_LINE0,TLE_LINE1,TLE_LINE2,NORAD_KEY,JCAT,DeepCat,Satcat,Piece,Active,Type,Name,LDate,Parent,Owner,State,SDate,ExpandedStatus,DDate,ODate,Period,Perigee,PF,Apogee,AF,Inc,IF,OpOrbit,SATCAT_KEY
3.0,GENERATED VIA SPACE-TRACK.ORG API,2026-05-06T10:08:52,18 SPCS,EUTE KONNECT VHTS,2022-110A,EARTH,TEME,UTC,SGP4,2026-05-06T02:53:11.571648,1.0026978,0.00029967,0.0614,94.7795,289.4398,245.7902,0,U,53765,999,641,0.00000000000000,0.00000025,0.0000000000000,42165.294,1436.126,35799.795,35774.524,PAYLOAD,LARGE,EUTE,2022-09-07,FRGUI,,5176958,322279532,0 EUTE KONNECT VHTS,1 53765U 22110A   26126.12027282  .00000025  00000-0  00000-0 0  9990,2 53765   0.0614  94.7795 0002997 289.4398 245.7902  1.00269780  6413,53765,S53765,-,53765,2022-110A,A,P,Eutelsat Konnect VHTS,2022 Sep  7,S53766,EUTSA,F,2022 Sep  7 2213,In Earth orbit,-,2026 May  5 ,    1436.106 ,   35773, ,   35799, ,  0.06 , ,GEO/S,53765
3.0,GENERATED VIA SPACE-TRACK.ORG API,2026-05-06T14:46:56,18 SPCS,EUTE KA SAT 9A (KA SAT),2010-069A,EARTH,TEME,UTC,SGP4,2026-05-06T08:36:38.744928,1.00274533,0.0004138,0.0621,4.2788,130.4787,227.64,0,U,37258,999,4358,0.00000000000000,0.00000070,0.0000000000000,42163.962,1436.058,35803.274,35768.379,PAYLOAD,LARGE,EUTE,2010-12-26,TTMTR,,5177110,322296189,0 EUTE KA SAT 9A (KA SAT),1 37258U 10069A   26126.35878177  .00000070  00000-0  00000+0 0  9990,2 37258   0.0621   4.2788 0004138 130.4787 227.6400  1.00274533 43587,37258,S37258,-,37258,2010-069A,P,P,KA-SAT,2010 Dec 26,S37259,VIA,US,2010 Dec 27 0703,In Earth orbit,-,2026 May  5 ,    1436.104 ,   35770, ,   35803, ,  0.06 , ,GEO/S,37258
3.0,GENERATED VIA SPACE-TRACK.ORG API,2026-05-06T14:46:56,18 SPCS,ASTRA 2E,2013-056A,EARTH,TEME,UTC,SGP4,2026-05-06T11:33:41.680224,1.00272609,0.0002697,0.0625,333.591,57.7707,34.8828,0,U,39285,999,4600,0.00000000000000,0.00000158,0.0000000000000,42164.501,1436.085,35797.738,35774.994,PAYLOAD,LARGE,SES,2013-09-29,TTMTR,,5177350,322297063,0 ASTRA 2E,1 39285U 13056A   26126.48173241  .00000158  00000-0  00000+0 0  9992,2 39285   0.0625 333.5910 0002697  57.7707  34.8828  1.00272609 46003,39285,S39285,-,39285,2013-056A,A,P      O,Astra 2E,2013 Sep 29,S39286,SESSA,L,2013 Sep 30 0650,In Earth orbit,-,2026 May  5 ,    1436.094 ,   35775, ,   35797, ,  0.06 , ,GEO/S,39285
3.0,GENERATED VIA SPACE-TRACK.ORG API,2026-05-06T14:46:56,18 SPCS,XM-5,2010-053A,EARTH,TEME,UTC,SGP4,2026-05-06T10:52:53.092128,1.00270303,0.0003605,0.0627,272.4288,270.7674,89.1428,0,U,37185,999,5706,0.00000000000000,-0.00000015,0.0000000000000,42165.147,1436.118,35802.213,35771.812,PAYLOAD,LARGE,US,2010-10-14,TTMTR,,5177109,322296171,0 XM-5,1 37185U 10053A   26126.45339227 -.00000015  00000-0  00000+0 0  9991,2 37185   0.0627 272.4288 0003605 270.7674  89.1428  1.00270303 57067,37185,S37185,-,37185,2010-053A,A,P,Sirius XM-5,2010 Oct 14,S37186,SIRX,US,2010 Oct 15 0405,In Earth orbit,-,2026 May  5 ,    1436.109 ,   35772, ,   35800, ,  0.06 , ,GEO/S,37185
3.0,GENERATED VIA SPACE-TRACK.ORG API,2026-05-06T14:46:56,18 SPCS,SES 2,2011-049A,EARTH,TEME,UTC,SGP4,2026-05-06T11:00:52.327008,1.00271749,0.0003047,0.0638,89.7413,319.5431,253.2621,0,U,37809,999,5354,0.00000000000000,-0.00000188,0.0000000000000,42164.742,1436.097,35799.455,35773.759,PAYLOAD,LARGE,SES,2011-09-21,FRGUI,,5177120,322296811,0 SES 2,1 37809U 11049A   26126.45893897 -.00000188  00000-0  00000+0 0  9999,2 37809   0.0638  89.7413 0003047 319.5431 253.2621  1.00271749 53547,37809,S37809,-,37809,2011-049A,P,P,SES-2,2011 Sep 21,S37812,SESSAP/SESE,US,2011 Sep 21 2213,In Earth orbit,-,2026 May  5 ,    1436.093 ,   35773, ,   35799, ,  0.06 , ,GEO/S,37809
3.0,GENERATED VIA SPACE-TRACK.ORG API,2026-05-06T14:56:52,18 SPCS,HG-01,2024-040A,EARTH,TEME,UTC,SGP4,2026-05-06T08:20:38.853024,1.00277488,0.0004126,0.064,327.0833,68.8399,347.0827,0,U,59069,999,690,0.00000000000000,0.00000164,0.0000000000000,42163.133,1436.015,35802.395,35767.602,PAYLOAD,LARGE,PRC,2024-02-29,XSC,,5177589,322307801,0 HG-01,1 59069U 24040A   26126.34767191  .00000164  00000-0  00000+0 0  9994,2 59069   0.0640 327.0833 0004126  68.8399 347.0827  1.00277488  6906,59069,S59069,-,59069,2024-040A,A,P,HG-01,2024 Feb 29,S59070,CNSA,CN,2024 Feb 29 1325?,In Earth orbit,-,2026 May  5 ,    1436.082 ,   35768, ,   35803, ,  0.06 , ,GEO/S,59069
3.0,GENERATED VIA SPACE-TRACK.ORG API,2026-05-06T14:46:56,18 SPCS,COSMOS 2513,2015-075A,EARTH,TEME,UTC,SGP4,2026-05-06T13:45:05.615424,1.00270904,0.0003639,0.0646,92.923,320.7596,97.2863,0,U,41121,999,3813,0.00000000000000,-0.00000130,0.0000000000000,42164.979,1436.11,35802.188,35771.5,PAYLOAD,LARGE,CIS,2015-12-13,TTMTR,,5177168,322297947,0 COSMOS 2513,1 41121U 15075A   26126.57298166 -.00000130  00000-0  00000+0 0  9992,2 41121   0.0646  92.9230 0003639 320.7596  97.2863  1.00270904 38138,41121,S41121,-,41121,2015-075A,A,P,Kosmos-2513,2015 Dec 13,S41122,VVKOV,RU,2015 Dec 13 0920?,In Earth orbit,-,2026 May  5 ,    1436.097 ,   35771, ,   35801, ,  0.06 , ,GEO/S,41121
3.0,GENERATED VIA SPACE-TRACK.ORG API,2026-05-06T14:46:56,18 SPCS,THAICOM 6,2014-002A,EARTH,TEME,UTC,SGP4,2026-05-06T13:43:04.804032,1.00272435,0.0004735,0.0648,102.2847,349.6177,56.8183,0,U,39500,999,4504,0.00000000000000,-0.00000114,0.0000000000000,42164.55,1436.088,35806.38,35766.45,PAYLOAD,LARGE,THAI,2014-01-06,AFETR,,5177141,322297611,0 THAICOM 6,1 39500U 14002A   26126.57158338 -.00000114  00000-0  00000+0 0  9997,2 39500   0.0648 102.2847 0004735 349.6177  56.8183  1.00272435 45045,39500,S39500,-,39500,2014-002A,A,P,Thaicom 6,2014 Jan  6,S39501,THAIC,T,2014 Jan  6 2237,In Earth orbit,-,2026 May  5 ,    1436.086 ,   35766, ,   35806, ,  0.06 , ,GEO/S,39500
3.0,GENERATED VIA SPACE-TRACK.ORG API,2026-05-06T14:46:56,18 SPCS,ABS 2,2014-006A,EARTH,TEME,UTC,SGP4,2026-05-06T11:10:51.288960,1.00272303,0.000384,0.0648,85.3437,326.3311,55.2968,0,U,39508,999,4486,0.00000000000000,-0.00000078,0.0000000000000,42164.587,1436.089,35802.643,35770.261,PAYLOAD,MEDIUM,ABS,2014-02-06,FRGUI,,5177141,322297612,0 ABS 2,1 39508U 14006A   26126.46587140 -.00000078  00000-0  00000+0 0  9993,2 39508   0.0648  85.3437 0003840 326.3311  55.2968  1.00272303 44864,39508,S39508,-,39508,2014-006A,A,P,ABS-2,2014 Feb  6,S39511,ABSHK,HK,2014 Feb  6 2157,In Earth orbit,-,2026 May  5 ,    1436.089 ,   35770, ,   35802, ,  0.06 , ,GEO/S,39508
3.0,GENERATED VIA SPACE-TRACK.ORG API,2026-05-06T10:08:52,18 SPCS,TURKSAT 3A,2008-030B,EARTH,TEME,UTC,SGP4,2026-05-06T04:47:02.325408,1.0027076,0.0005238,0.065,82.5876,321.5537,293.6912,0,U,33056,999,5193,0.00000000000000,0.00000154,0.0000000000000,42165.019,1436.112,35808.97,35764.798,PAYLOAD,LARGE,TURK,2008-06-12,FRGUI,,5176958,322269662,0 TURKSAT 3A,1 33056U 08030B   26126.19933247  .00000154  00000-0  00000-0 0  9993,2 33056   0.0650  82.5876 0005238 321.5537 293.6912  1.00270760 51933,33056,S33056,-,33056,2008-030B,A,P,Turksat 3A,2008 Jun 12,S33057,TURKS,TR,2008 Jun 12 2236,In Earth orbit,-,2026 May  5 ,    1436.118 ,   35764, ,   35809, ,  0.06 , ,GEO/S,33056
3.0,GENERATED VIA SPACE-TRACK.ORG API,2026-05-06T14:46:56,18 SPCS,ARABSAT 5A,2010-032B,EARTH,TEME,UTC,SGP4,2026-05-06T11:34:19.119072,1.00272915,0.0004722,0.0654,49.1715,26.5293,352.7329,0,U,36745,999,5822,0.00000000000000,0.00000161,0.0000000000000,42164.415,1436.081,35806.19,35766.37,PAYLOAD,LARGE,AB,2010-06-26,FRGUI,,5177104,322296615,0 ARABSAT 5A,1 36745U 10032B   26126.48216573  .00000161  00000-0  00000+0 0  9991,2 36745   0.0654  49.1715 0004722  26.5293 352.7329  1.00272915 58226,36745,S36745,-,36745,2010-032B,A,P,Arabsat 5A,2010 Jun 26,S36747,ARAB,I-ARAB,2010 Jun 26 2207,In Earth orbit,-,2026 May  5 ,    1436.068 ,   35766, ,   35805, ,  0.09 , ,GEO/S,36745
3.0,GENERATED VIA SPACE-TRACK.ORG API,2026-05-06T14:56:52,18 SPCS,CHINASAT-26,2023-023A,EARTH,TEME,UTC,SGP4,2026-05-06T12:01:24.022272,1.00270942,0.000457,0.0661,74.9799,352.2854,102.5722,0,U,55686,999,1181,0.00000000000000,-0.00000346,0.0000000000000,42164.968,1436.109,35806.103,35767.564,PAYLOAD,LARGE,PRC,2023-02-23,XSC,,5177490,322305002,0 CHINASAT-26,1 55686U 23023A   26126.50097248 -.00000346  00000-0  00000+0 0  9995,2 55686   0.0661  74.9799 0004570 352.2854 102.5722  1.00270942 11810,55686,S55686,-,55686,2023-023A,A,P,Zhongxing 26,2023 Feb 23,S55687,CHISAE,CN,2023 Feb 23 1214?,In Earth orbit,-,2026 May  5 ,    1436.082 ,   35767, ,   35805, ,  0.06 , ,GEO/S,55686
3.0,GENERATED VIA SPACE-TRACK.ORG API,2026-05-06T14:46:56,18 SPCS,EUTE 3B,2014-030A,EARTH,TEME,UTC,SGP4,2026-05-06T08:01:15.534048,1.00272256,0.0004196,0.0661,359.1641,48.8081,299.636,0,U,39773,999,4364,0.00000000000000,0.00000028,0.0000000000000,42164.6,1436.09,35804.157,35768.773,PAYLOAD,LARGE,EUTE,2014-05-26,SEAL,,5177145,322297165,0 EUTE 3B,1 39773U 14030A   26126.33420757  .00000028  00000-0  00000+0 0  9994,2 39773   0.0661 359.1641 0004196  48.8081 299.6360  1.00272256 43649,39773,S39773,-,39773,2014-030A,A,P,EUTELSAT 3B,2014 May 26,S39774,EUTSA,F,2014 May 26 2210,In Earth orbit,-,2026 May  5 ,    1436.093 ,   35768, ,   35804, ,  0.07 , ,GEO/S,39773
